[{"OBJECT_NAME":"STARLINK-37158","OBJECT_ID":"2026-059Y","EPOCH":"2026-04-05T04:00:01.999584","MEAN_MOTION":15.8088508,"ECCENTRICITY":0.0001156,"INCLINATION":53.1597,"RA_OF_ASC_NODE":229.9956,"ARG_OF_PERICENTER":71.8811,"MEAN_ANOMALY":299.9432,"EPHEMERIS_TYPE":0,"CLASSIFICATION_TYPE":"U","NORAD_CAT_ID":68343,"ELEMENT_SET_NO":999,"REV_AT_EPOCH":329,"BSTAR":0.00031095216,"MEAN_MOTION_DOT":0.00061143,"MEAN_MOTION_DDOT":0},{"OBJECT_NAME":"STARLINK-36380","OBJECT_ID":"2026-059Z","EPOCH":"2026-04-05T04:00:01.999584","MEAN_MOTION":15.80904257,"ECCENTRICITY":8.269e-5,"INCLINATION":53.1596,"RA_OF_ASC_NODE":230.0136,"ARG_OF_PERICENTER":86.4243,"MEAN_ANOMALY":276.8542,"EPHEMERIS_TYPE":0,"CLASSIFICATION_TYPE":"U","NORAD_CAT_ID":68344,"ELEMENT_SET_NO":999,"REV_AT_EPOCH":329,"BSTAR":3.9975082e-5,"MEAN_MOTION_DOT":7.209e-5,"MEAN_MOTION_DDOT":0},{"OBJECT_NAME":"STARLINK-37214","OBJECT_ID":"2026-059AA","EPOCH":"2026-04-05T04:00:01.999584","MEAN_MOTION":15.80913253,"ECCENTRICITY":9.278e-5,"INCLINATION":53.1595,"RA_OF_ASC_NODE":229.978,"ARG_OF_PERICENTER":65.9194,"MEAN_ANOMALY":314.4348,"EPHEMERIS_TYPE":0,"CLASSIFICATION_TYPE":"U","NORAD_CAT_ID":68345,"ELEMENT_SET_NO":999,"REV_AT_EPOCH":329,"BSTAR":7.1075411e-5,"MEAN_MOTION_DOT":0.00013377,"MEAN_MOTION_DDOT":0},{"OBJECT_NAME":"STARLINK-37169","OBJECT_ID":"2026-059AB","EPOCH":"2026-04-05T04:00:01.999584","MEAN_MOTION":15.80912181,"ECCENTRICITY":5.356e-5,"INCLINATION":53.1595,"RA_OF_ASC_NODE":229.9688,"ARG_OF_PERICENTER":85.9961,"MEAN_ANOMALY":298.6278,"EPHEMERIS_TYPE":0,"CLASSIFICATION_TYPE":"U","NORAD_CAT_ID":68346,"ELEMENT_SET_NO":999,"REV_AT_EPOCH":329,"BSTAR":0.0001127109,"MEAN_MOTION_DOT":0.00021643,"MEAN_MOTION_DDOT":0},{"OBJECT_NAME":"STARLINK-37136","OBJECT_ID":"2026-059AC","EPOCH":"2026-04-05T04:00:01.999584","MEAN_MOTION":15.80923893,"ECCENTRICITY":0.00010876,"INCLINATION":53.1591,"RA_OF_ASC_NODE":229.9601,"ARG_OF_PERICENTER":95.3294,"MEAN_ANOMALY":293.5656,"EPHEMERIS_TYPE":0,"CLASSIFICATION_TYPE":"U","NORAD_CAT_ID":68347,"ELEMENT_SET_NO":999,"REV_AT_EPOCH":329,"BSTAR":-6.7088063e-5,"MEAN_MOTION_DOT":-0.0001395,"MEAN_MOTION_DDOT":0},{"OBJECT_NAME":"STARLINK-37182","OBJECT_ID":"2026-059AD","EPOCH":"2026-04-05T04:00:01.999584","MEAN_MOTION":15.80898662,"ECCENTRICITY":0.00011606,"INCLINATION":53.1596,"RA_OF_ASC_NODE":229.9865,"ARG_OF_PERICENTER":37.7304,"MEAN_ANOMALY":338.3868,"EPHEMERIS_TYPE":0,"CLASSIFICATION_TYPE":"U","NORAD_CAT_ID":68348,"ELEMENT_SET_NO":999,"REV_AT_EPOCH":329,"BSTAR":3.035492e-5,"MEAN_MOTION_DOT":5.303e-5,"MEAN_MOTION_DDOT":0},{"OBJECT_NAME":"STARLINK-37183","OBJECT_ID":"2026-059AE","EPOCH":"2026-04-05T04:00:01.999584","MEAN_MOTION":15.80845665,"ECCENTRICITY":9.483e-5,"INCLINATION":53.1596,"RA_OF_ASC_NODE":229.9513,"ARG_OF_PERICENTER":107.4799,"MEAN_ANOMALY":285.7042,"EPHEMERIS_TYPE":0,"CLASSIFICATION_TYPE":"U","NORAD_CAT_ID":68349,"ELEMENT_SET_NO":999,"REV_AT_EPOCH":329,"BSTAR":0.00073991965,"MEAN_MOTION_DOT":0.00147672,"MEAN_MOTION_DDOT":0},{"OBJECT_NAME":"CENTISPACE-1 OBJECT A","OBJECT_ID":"2026-060A","EPOCH":"2026-04-04T17:12:51.228576","MEAN_MOTION":14.74756185,"ECCENTRICITY":0.00121268,"INCLINATION":54.9826,"RA_OF_ASC_NODE":335.4497,"ARG_OF_PERICENTER":317.533,"MEAN_ANOMALY":42.473,"EPHEMERIS_TYPE":0,"CLASSIFICATION_TYPE":"U","NORAD_CAT_ID":68350,"ELEMENT_SET_NO":999,"REV_AT_EPOCH":193,"BSTAR":-0.019084541,"MEAN_MOTION_DOT":-0.00126596,"MEAN_MOTION_DDOT":0},{"OBJECT_NAME":"CENTISPACE-1 OBJECT B","OBJECT_ID":"2026-060B","EPOCH":"2026-04-04T18:49:36.793632","MEAN_MOTION":14.74944202,"ECCENTRICITY":0.00135305,"INCLINATION":54.982,"RA_OF_ASC_NODE":335.1667,"ARG_OF_PERICENTER":326.88,"MEAN_ANOMALY":33.1351,"EPHEMERIS_TYPE":0,"CLASSIFICATION_TYPE":"U","NORAD_CAT_ID":68351,"ELEMENT_SET_NO":999,"REV_AT_EPOCH":194,"BSTAR":0.00035156248,"MEAN_MOTION_DOT":2.174e-5,"MEAN_MOTION_DDOT":0},{"OBJECT_NAME":"CENTISPACE-1 OBJECT C","OBJECT_ID":"2026-060C","EPOCH":"2026-04-05T06:10:25.542912","MEAN_MOTION":14.75018319,"ECCENTRICITY":0.00125023,"INCLINATION":54.9853,"RA_OF_ASC_NODE":333.2248,"ARG_OF_PERICENTER":336.1708,"MEAN_ANOMALY":23.8711,"EPHEMERIS_TYPE":0,"CLASSIFICATION_TYPE":"U","NORAD_CAT_ID":68352,"ELEMENT_SET_NO":999,"REV_AT_EPOCH":201,"BSTAR":4.5110043e-5,"MEAN_MOTION_DOT":9.7e-7,"MEAN_MOTION_DDOT":0},{"OBJECT_NAME":"CENTISPACE-1 OBJECT D","OBJECT_ID":"2026-060D","EPOCH":"2026-04-04T18:47:20.874336","MEAN_MOTION":14.7500838,"ECCENTRICITY":0.00119603,"INCLINATION":54.9868,"RA_OF_ASC_NODE":335.1678,"ARG_OF_PERICENTER":335.0245,"MEAN_ANOMALY":25.0175,"EPHEMERIS_TYPE":0,"CLASSIFICATION_TYPE":"U","NORAD_CAT_ID":68353,"ELEMENT_SET_NO":999,"REV_AT_EPOCH":194,"BSTAR":4.831664e-5,"MEAN_MOTION_DOT":1.18e-6,"MEAN_MOTION_DDOT":0},{"OBJECT_NAME":"CENTISPACE-1 OBJECT E","OBJECT_ID":"2026-060E","EPOCH":"2026-04-05T04:31:43.318848","MEAN_MOTION":14.74993079,"ECCENTRICITY":0.00131621,"INCLINATION":54.9775,"RA_OF_ASC_NODE":333.4887,"ARG_OF_PERICENTER":335.8689,"MEAN_ANOMALY":24.1692,"EPHEMERIS_TYPE":0,"CLASSIFICATION_TYPE":"U","NORAD_CAT_ID":68354,"ELEMENT_SET_NO":999,"REV_AT_EPOCH":200,"BSTAR":4.1908084e-5,"MEAN_MOTION_DOT":7.5e-7,"MEAN_MOTION_DDOT":0},{"OBJECT_NAME":"CENTISPACE-1 OBJECT F","OBJECT_ID":"2026-060F","EPOCH":"2026-04-05T06:09:17.332704","MEAN_MOTION":14.75074047,"ECCENTRICITY":0.00134247,"INCLINATION":54.9764,"RA_OF_ASC_NODE":333.2131,"ARG_OF_PERICENTER":332.6746,"MEAN_ANOMALY":27.3546,"EPHEMERIS_TYPE":0,"CLASSIFICATION_TYPE":"U","NORAD_CAT_ID":68355,"ELEMENT_SET_NO":999,"REV_AT_EPOCH":201,"BSTAR":4.3490956e-5,"MEAN_MOTION_DOT":8.6e-7,"MEAN_MOTION_DDOT":0},{"OBJECT_NAME":"CENTISPACE-1 OBJECT G","OBJECT_ID":"2026-060G","EPOCH":"2026-04-04T15:29:48.717600","MEAN_MOTION":14.75216843,"ECCENTRICITY":0.0014233,"INCLINATION":54.9929,"RA_OF_ASC_NODE":335.7064,"ARG_OF_PERICENTER":337.97,"MEAN_ANOMALY":22.0687,"EPHEMERIS_TYPE":0,"CLASSIFICATION_TYPE":"U","NORAD_CAT_ID":68356,"ELEMENT_SET_NO":999,"REV_AT_EPOCH":192,"BSTAR":4.9346e-5,"MEAN_MOTION_DOT":1.26e-6,"MEAN_MOTION_DDOT":0},{"OBJECT_NAME":"CENTISPACE-1 OBJECT H","OBJECT_ID":"2026-060H","EPOCH":"2026-04-02T09:49:01.049088","MEAN_MOTION":14.75277593,"ECCENTRICITY":0.00138214,"INCLINATION":54.9838,"RA_OF_ASC_NODE":344.8287,"ARG_OF_PERICENTER":328.1926,"MEAN_ANOMALY":31.8237,"EPHEMERIS_TYPE":0,"CLASSIFICATION_TYPE":"U","NORAD_CAT_ID":68357,"ELEMENT_SET_NO":999,"REV_AT_EPOCH":159,"BSTAR":4.8805088e-5,"MEAN_MOTION_DOT":1.23e-6,"MEAN_MOTION_DDOT":0},{"OBJECT_NAME":"CENTISPACE-1 OBJECT J","OBJECT_ID":"2026-060J","EPOCH":"2026-04-05T06:06:39.897216","MEAN_MOTION":14.7529142,"ECCENTRICITY":0.00146896,"INCLINATION":54.9826,"RA_OF_ASC_NODE":333.2044,"ARG_OF_PERICENTER":334.4092,"MEAN_ANOMALY":25.6179,"EPHEMERIS_TYPE":0,"CLASSIFICATION_TYPE":"U","NORAD_CAT_ID":68358,"ELEMENT_SET_NO":999,"REV_AT_EPOCH":201,"BSTAR":4.528745e-5,"MEAN_MOTION_DOT":9.9e-7,"MEAN_MOTION_DDOT":0}]
