STARLINK-37158          
1 68343U 26059Y   26095.16668981  .00061143  00000+0  31095-3 0  9998
2 68343  53.1597 229.9956 0001156  71.8811 299.9432 15.80885080  3292
STARLINK-36380          
1 68344U 26059Z   26095.16668981  .00007209  00000+0  39975-4 0  9998
2 68344  53.1596 230.0136 0000826  86.4243 276.8542 15.80904257  3293
STARLINK-37214          
1 68345U 26059AA  26095.16668981  .00013377  00000+0  71075-4 0  9999
2 68345  53.1595 229.9780 0000927  65.9194 314.4348 15.80913253  3293
STARLINK-37169          
1 68346U 26059AB  26095.16668981  .00021643  00000+0  11271-3 0  9996
2 68346  53.1595 229.9688 0000535  85.9961 298.6278 15.80912181  3294
STARLINK-37136          
1 68347U 26059AC  26095.16668981 -.00013950  00000+0 -67088-4 0  9999
2 68347  53.1591 229.9601 0001087  95.3294 293.5656 15.80923893  3299
STARLINK-37182          
1 68348U 26059AD  26095.16668981  .00005303  00000+0  30355-4 0  9998
2 68348  53.1596 229.9865 0001160  37.7304 338.3868 15.80898662  3299
STARLINK-37183          
1 68349U 26059AE  26095.16668981  .00147672  00000+0  73992-3 0  9998
2 68349  53.1596 229.9513 0000948 107.4799 285.7042 15.80845665  3290
CENTISPACE-1 OBJECT A   
1 68350U 26060A   26094.71725959 -.00126596  00000+0 -19085-1 0  9996
2 68350  54.9826 335.4497 0012126 317.5330  42.4730 14.74756185  1938
CENTISPACE-1 OBJECT B   
1 68351U 26060B   26094.78445363  .00002174  00000+0  35156-3 0  9994
2 68351  54.9820 335.1667 0013530 326.8800  33.1351 14.74944202  1940
CENTISPACE-1 OBJECT C   
1 68352U 26060C   26095.25724008  .00000097  00000+0  45110-4 0  9998
2 68352  54.9853 333.2248 0012502 336.1708  23.8711 14.75018319  2017
CENTISPACE-1 OBJECT D   
1 68353U 26060D   26094.78288049  .00000118  00000+0  48317-4 0  9992
2 68353  54.9868 335.1678 0011960 335.0245  25.0175 14.75008380  1949
CENTISPACE-1 OBJECT E   
1 68354U 26060E   26095.18869582  .00000075  00000+0  41908-4 0  9996
2 68354  54.9775 333.4887 0013162 335.8689  24.1692 14.74993079  2005
CENTISPACE-1 OBJECT F   
1 68355U 26060F   26095.25645061  .00000086  00000+0  43491-4 0  9990
2 68355  54.9764 333.2131 0013424 332.6746  27.3546 14.75074047  2014
CENTISPACE-1 OBJECT G   
1 68356U 26060G   26094.64570275  .00000126  00000+0  49346-4 0  9997
2 68356  54.9929 335.7064 0014233 337.9700  22.0687 14.75216843  1926
CENTISPACE-1 OBJECT H   
1 68357U 26060H   26092.40903992  .00000123  00000+0  48805-4 0  9992
2 68357  54.9838 344.8287 0013821 328.1926  31.8237 14.75277593  1599
CENTISPACE-1 OBJECT J   
1 68358U 26060J   26095.25462844  .00000099  00000+0  45287-4 0  9998
2 68358  54.9826 333.2044 0014689 334.4092  25.6179 14.75291420  2016
